{
  "type": "FeatureCollection",
  "features": [
    {
      "type": "Feature",
      "properties": {
        "norad_id": 43564,
        "name": "GSAT0221 (GALILEO 25)",
        "group": "galileo",
        "lat": -1.834817348648446,
        "lon": -14.391325547284382,
        "alt_km": 23217.410808269706,
        "timestamp": "2025-12-13T16:48:32.973557+00:00",
        "meta_object_name": "GSAT0221 (GALILEO 25)",
        "meta_object_id": "2018-060A",
        "meta_epoch": "2025-12-10T18:30:15.067872",
        "meta_mean_motion": 1.70475777,
        "meta_eccentricity": 0.0006715,
        "meta_inclination": 57.2282,
        "meta_ra_of_asc_node": 346.8706,
        "meta_arg_of_pericenter": 282.7382,
        "meta_mean_anomaly": 77.2035,
        "meta_ephemeris_type": 0,
        "meta_classification_type": "U",
        "meta_norad_cat_id": 43564,
        "meta_element_set_no": 999,
        "meta_rev_at_epoch": 4595,
        "meta_bstar": 0,
        "meta_mean_motion_dot": -8.7e-07,
        "meta_mean_motion_ddot": 0,
        "tle_line1": "1 43564U 18060A   25344.77100773 -.00000087  00000+0  00000+0 0  9991",
        "tle_line2": "2 43564  57.2282 346.8706 0006715 282.7382  77.2035  1.70475777 45957"
      },
      "geometry": {
        "type": "Point",
        "coordinates": [
          -14.391325547284382,
          -1.834817348648446
        ]
      }
    },
    {
      "type": "Feature",
      "properties": {
        "norad_id": 43565,
        "name": "GSAT0222 (GALILEO 26)",
        "group": "galileo",
        "lat": -35.083172602905,
        "lon": -166.3058638450282,
        "alt_km": 23212.487322210305,
        "timestamp": "2025-12-13T16:48:32.973568+00:00",
        "meta_object_name": "GSAT0222 (GALILEO 26)",
        "meta_object_id": "2018-060B",
        "meta_epoch": "2025-12-11T13:50:46.646592",
        "meta_mean_motion": 1.70475594,
        "meta_eccentricity": 0.00061469,
        "meta_inclination": 57.2316,
        "meta_ra_of_asc_node": 346.8519,
        "meta_arg_of_pericenter": 263.5274,
        "meta_mean_anomaly": 96.42,
        "meta_ephemeris_type": 0,
        "meta_classification_type": "U",
        "meta_norad_cat_id": 43565,
        "meta_element_set_no": 999,
        "meta_rev_at_epoch": 4601,
        "meta_bstar": 0,
        "meta_mean_motion_dot": -8.7e-07,
        "meta_mean_motion_ddot": 0,
        "tle_line1": "1 43565U 18060B   25345.57692878 -.00000087  00000+0  00000+0 0  9993",
        "tle_line2": "2 43565  57.2316 346.8519 0006146 263.5274  96.4200  1.70475594 46015"
      },
      "geometry": {
        "type": "Point",
        "coordinates": [
          -166.3058638450282,
          -35.083172602905
        ]
      }
    },
    {
      "type": "Feature",
      "properties": {
        "norad_id": 43566,
        "name": "GSAT0219 (GALILEO 23)",
        "group": "galileo",
        "lat": 57.12472898187693,
        "lon": 72.12376449932815,
        "alt_km": 23231.701137817352,
        "timestamp": "2025-12-13T16:48:32.973579+00:00",
        "meta_object_name": "GSAT0219 (GALILEO 23)",
        "meta_object_id": "2018-060C",
        "meta_epoch": "2025-12-12T23:18:35.949024",
        "meta_mean_motion": 1.70475808,
        "meta_eccentricity": 0.00058128,
        "meta_inclination": 57.2304,
        "meta_ra_of_asc_node": 346.8158,
        "meta_arg_of_pericenter": 287.2893,
        "meta_mean_anomaly": 72.6656,
        "meta_ephemeris_type": 0,
        "meta_classification_type": "U",
        "meta_norad_cat_id": 43566,
        "meta_element_set_no": 999,
        "meta_rev_at_epoch": 4601,
        "meta_bstar": 0,
        "meta_mean_motion_dot": -8.6e-07,
        "meta_mean_motion_ddot": 0,
        "tle_line1": "1 43566U 18060C   25346.97124941 -.00000086  00000+0  00000+0 0  9999",
        "tle_line2": "2 43566  57.2304 346.8158 0005812 287.2893  72.6656  1.70475808 46010"
      },
      "geometry": {
        "type": "Point",
        "coordinates": [
          72.12376449932815,
          57.12472898187693
        ]
      }
    },
    {
      "type": "Feature",
      "properties": {
        "norad_id": 43567,
        "name": "GSAT0220 (GALILEO 24)",
        "group": "galileo",
        "lat": -38.759326482216565,
        "lon": -44.348076573184436,
        "alt_km": 23210.640258379466,
        "timestamp": "2025-12-13T16:48:32.973590+00:00",
        "meta_object_name": "GSAT0220 (GALILEO 24)",
        "meta_object_id": "2018-060D",
        "meta_epoch": "2025-12-10T20:18:00.212256",
        "meta_mean_motion": 1.70475727,
        "meta_eccentricity": 0.0006125,
        "meta_inclination": 57.2305,
        "meta_ra_of_asc_node": 346.8727,
        "meta_arg_of_pericenter": 283.9956,
        "meta_mean_anomaly": 75.9532,
        "meta_ephemeris_type": 0,
        "meta_classification_type": "U",
        "meta_norad_cat_id": 43567,
        "meta_element_set_no": 999,
        "meta_rev_at_epoch": 4596,
        "meta_bstar": 0,
        "meta_mean_motion_dot": -8.7e-07,
        "meta_mean_motion_ddot": 0,
        "tle_line1": "1 43567U 18060D   25344.84583579 -.00000087  00000+0  00000+0 0  9991",
        "tle_line2": "2 43567  57.2305 346.8727 0006125 283.9956  75.9532  1.70475727 45967"
      },
      "geometry": {
        "type": "Point",
        "coordinates": [
          -44.348076573184436,
          -38.759326482216565
        ]
      }
    },
    {
      "type": "Feature",
      "properties": {
        "norad_id": 49809,
        "name": "GSAT0223 (GALILEO 27)",
        "group": "galileo",
        "lat": 34.684421822781395,
        "lon": 13.17182664925869,
        "alt_km": 23229.795697359474,
        "timestamp": "2025-12-13T16:48:32.973600+00:00",
        "meta_object_name": "GSAT0223 (GALILEO 27)",
        "meta_object_id": "2021-116A",
        "meta_epoch": "2025-12-10T02:39:25.687008",
        "meta_mean_motion": 1.70475768,
        "meta_eccentricity": 0.000463,
        "meta_inclination": 57.2198,
        "meta_ra_of_asc_node": 346.7831,
        "meta_arg_of_pericenter": 251.6037,
        "meta_mean_anomaly": 107.9349,
        "meta_ephemeris_type": 0,
        "meta_classification_type": "U",
        "meta_norad_cat_id": 49809,
        "meta_element_set_no": 999,
        "meta_rev_at_epoch": 2495,
        "meta_bstar": 0,
        "meta_mean_motion_dot": -8.7e-07,
        "meta_mean_motion_ddot": 0,
        "tle_line1": "1 49809U 21116A   25344.11071397 -.00000087  00000+0  00000+0 0  9992",
        "tle_line2": "2 49809  57.2198 346.7831 0004630 251.6037 107.9349  1.70475768 24951"
      },
      "geometry": {
        "type": "Point",
        "coordinates": [
          13.17182664925869,
          34.684421822781395
        ]
      }
    },
    {
      "type": "Feature",
      "properties": {
        "norad_id": 49810,
        "name": "GSAT0224 (GALILEO 28)",
        "group": "galileo",
        "lat": 20.668125961234487,
        "lon": 152.61494326163944,
        "alt_km": 23221.80635264585,
        "timestamp": "2025-12-13T16:48:32.973612+00:00",
        "meta_object_name": "GSAT0224 (GALILEO 28)",
        "meta_object_id": "2021-116B",
        "meta_epoch": "2025-12-10T19:26:19.690368",
        "meta_mean_motion": 1.70475895,
        "meta_eccentricity": 0.000393,
        "meta_inclination": 57.2205,
        "meta_ra_of_asc_node": 346.7629,
        "meta_arg_of_pericenter": 256.2791,
        "meta_mean_anomaly": 284.9883,
        "meta_ephemeris_type": 0,
        "meta_classification_type": "U",
        "meta_norad_cat_id": 49810,
        "meta_element_set_no": 999,
        "meta_rev_at_epoch": 2499,
        "meta_bstar": 0,
        "meta_mean_motion_dot": -8.7e-07,
        "meta_mean_motion_ddot": 0,
        "tle_line1": "1 49810U 21116B   25344.80995012 -.00000087  00000+0  00000+0 0  9999",
        "tle_line2": "2 49810  57.2205 346.7629 0003930 256.2791 284.9883  1.70475895 24991"
      },
      "geometry": {
        "type": "Point",
        "coordinates": [
          152.61494326163944,
          20.668125961234487
        ]
      }
    },
    {
      "type": "Feature",
      "properties": {
        "norad_id": 59598,
        "name": "GSAT0225 (GALILEO 29)",
        "group": "galileo",
        "lat": 25.935328392255595,
        "lon": -93.64767677594055,
        "alt_km": 23213.62360807497,
        "timestamp": "2025-12-13T16:48:32.973623+00:00",
        "meta_object_name": "GSAT0225 (GALILEO 29)",
        "meta_object_id": "2024-079A",
        "meta_epoch": "2025-12-10T12:47:07.958400",
        "meta_mean_motion": 1.70474727,
        "meta_eccentricity": 0.00020453,
        "meta_inclination": 55.0006,
        "meta_ra_of_asc_node": 106.3566,
        "meta_arg_of_pericenter": 176.2356,
        "meta_mean_anomaly": 187.363,
        "meta_ephemeris_type": 0,
        "meta_classification_type": "U",
        "meta_norad_cat_id": 59598,
        "meta_element_set_no": 999,
        "meta_rev_at_epoch": 1010,
        "meta_bstar": 0,
        "meta_mean_motion_dot": 1e-07,
        "meta_mean_motion_ddot": 0,
        "tle_line1": "1 59598U 24079A   25344.53273100  .00000010  00000+0  00000+0 0  9996",
        "tle_line2": "2 59598  55.0006 106.3566 0002045 176.2356 187.3630  1.70474727 10101"
      },
      "geometry": {
        "type": "Point",
        "coordinates": [
          -93.64767677594055,
          25.935328392255595
        ]
      }
    }
  ]
}